141P-E/Machholz,e,12.8152,246.1856,149.2667,3.012914,0.1884620,0.75023267,359.9529,09/19.0/1994,2000,g  9.0,4.0
# From MPEC 2015-R12
141P-F/Machholz,e,12.7898,246.1881,149.2374,3.010224,0.1887147,0.75000946,359.9630,09/19.0/1994,2000,g  9.0,4.0
# From MPEC 2015-R12
141P-G/Machholz,e,12.8259,246.3146,149.0784,3.005818,0.1891298,0.74964304,359.9802,09/19.0/1994,2000,g  9.0,4.0
# From MPC 95735
141P-H/Machholz,e,12.8431,246.0900,149.4500,3.008012,0.1889230,0.74682218,359.9270,08/24.0/2015,2000,g 18.5,4.0
# From MPEC 2022-SU8
141P-I/Machholz,e,13.9427,153.4979,241.8951,3.048085,0.1852095,0.73529328,233.0477,05/28.0/2024,2000,g 17.5,4.0
# From MPEC 2024-C04
142P/Ge-Wang,e,12.2491,175.9461,174.0758,5.002616,0.0880863,0.49651282,97.9238,05/28.0/2024,2000,g  8.5,6.0
# From MPEC 2023-XP6
143P/Kowal-Mrkos,e,5.2434,243.5301,320.0344,4.277440,0.1114110,0.43148687,252.2423,05/28.0/2024,2000,g 13.5,2.0
# From MPEC 2024-JU4
144P/Kushida,e,3.9319,242.9247,216.3244,3.831302,0.1314269,0.63488177,16.1953,05/28.0/2024,2000,g  8.5,8.0
# From MPC108598
145P/Shoemaker-Levy,e,11.2774,26.8115,10.3235,4.132905,0.1173062,0.54261403,287.9992,05/28.0/2024,2000,g 13.5,4.0
# From MPC100284
146P/Shoemaker-LINEAR,e,23.1171,53.4198,317.0274,4.025937,0.1220123,0.64741370,351.5212,05/28.0/2024,2000,g 15.0,4.0
# From MPC 75720
147P/Kushida-Muramatsu,e,2.2914,92.1164,348.1019,4.010112,0.1227353,0.21233561,21.2276,05/28.0/2024,2000,g 14.0,4.0
# From MPEC 2024-JU4
148P/Anderson-LINEAR,e,3.6587,89.1965,8.0554,3.619799,0.1431125,0.55026666,102.1955,05/28.0/2024,2000,g 16.0,2.0
# From MPEC 2023-J29
149P/Mueller,e,34.2363,143.8312,30.3760,4.125183,0.1176357,0.32431971,250.1912,05/28.0/2024,2000,g  8.0,8.0
# From MPEC 2024-JU4
150P/LONEOS,e,18.5474,272.0580,246.1150,3.870349,0.1294431,0.54898439,9.9069,05/28.0/2024,2000,g 13.5,4.0
# From MPEC 2022-K19
151P/Helin,e,4.7274,143.1592,216.1391,5.764284,0.0712174,0.57321091,224.2139,05/28.0/2024,2000,g 10.0,6.0
# From MPEC 2024-JU4
152P/Helin-Lawrence,e,9.8783,91.7918,164.3873,4.483701,0.1038124,0.30792424,89.7251,05/28.0/2024,2000,g 11.5,4.0
# From MPC 46101
153P/Ikeya-Zhang,e,28.4126,93.7199,34.3518,50.36022,0.0027579,0.99000243,0.0000,03/06.4877/2002,2000,g  9.0,4.0
# From MPEC 2022-K19
154P/Brewington,e,17.6337,343.0158,47.9583,4.795349,0.0938585,0.67615469,358.6439,05/28.0/2024,2000,g  2.5,12.0
# From MPEC 2022-YN2
155P/Shoemaker,e,6.4082,97.1586,14.5193,6.571006,0.0585135,0.72734735,96.8271,05/28.0/2024,2000,g 10.0,4.8
# From MPEC 2023-J29
156P/Russell-LINEAR,e,17.2688,35.3418,0.5080,3.462506,0.1529742,0.61512363,196.7696,05/28.0/2024,2000,g 15.5,2.0
# From MPEC 2024-D33
157P/Tritton,e,12.4212,287.5150,155.1286,3.547051,0.1475377,0.55683841,92.3642,05/28.0/2024,2000,g 10.0,4.0
# From MPEC 2022-VC5
157P-B/Tritton,e,12.4248,153.9126,287.1495,3.102357,0.1803709,0.49990893,113.2434,05/28.0/2024,2000,g 15.7,4.0
# From MPEC 2024-D33
158P/Kowal-LINEAR,e,7.3091,126.5245,217.0216,5.571038,0.0749549,0.11685231,54.9891,05/28.0/2024,2000,g  9.0,4.0
# From MPEC 2024-DC6
159P/LONEOS,e,23.4896,54.9389,4.6597,5.853527,0.0695949,0.38280826,152.7398,05/28.0/2024,2000,g 10.0,4.0
# From MPEC 2022-K19
160P/LINEAR,e,15.6024,333.3703,12.7896,3.778344,0.1341998,0.52545702,219.9138,05/28.0/2024,2000,g 15.5,2.0
# From MPC 75721
161P/Hartley-IRAS,e,95.8212,1.5558,47.0653,7.712967,0.0460121,0.83566431,317.9385,05/28.0/2024,2000,g  8.5,6.0
# From MPEC 2024-JU4
162P/SidingSpring,e,27.5621,30.8869,357.2192,3.092129,0.1812665,0.58310783,229.5519,05/28.0/2024,2000,g 12.0,4.0
# From MPEC 2021-S45
163P/NEAT,e,12.7197,102.0700,349.5815,3.762769,0.1350339,0.45326778,237.1319,05/28.0/2024,2000,g 14.5,4.0
# From MPEC 2021-F20
164P/Christensen,e,16.2729,88.3051,325.8937,3.652215,0.1412113,0.54124841,308.5468,05/28.0/2024,2000,g 11.0,4.0
# From MPC 75721
165P/LINEAR,e,15.9005,0.7784,125.7775,17.81801,0.0131043,0.61828136,114.8135,05/28.0/2024,2000,g 11.5,2.0
# From MPC 75722
166P/NEAT,e,15.3799,64.4296,321.7514,13.82714,0.0191693,0.38410047,153.7829,05/28.0/2024,2000,g  5.5,4.0
# From MPEC 2023-J29
167P/CINEOS,e,19.0850,295.8041,344.6859,16.25863,0.0150341,0.26825033,126.9711,05/28.0/2024,2000,g  9.5,2.0
# From MPEC 2023-J29
168P/Hergenrother,e,21.6025,355.4142,15.0819,3.586839,0.1450896,0.62150603,254.3650,05/28.0/2024,2000,g 15.5,4.0
# From MPEC 2023-J95
169P/NEAT,e,11.2932,176.0889,218.0869,2.603384,0.2346371,0.76826835,161.4838,05/28.0/2024,2000,g 16.0,2.0
# From MPEC 2024-GJ3
170P/Christensen,e,10.1155,142.6939,225.0888,4.204336,0.1143294,0.30551370,46.4892,05/28.0/2024,2000,g 12.0,4.0
# From MPC102102
171P/Spahr,e,21.9501,101.6994,347.0671,3.552486,0.1471992,0.50261432,288.5997,05/28.0/2024,2000,g 13.5,4.0
# From MPEC 2024-JU4
172P/Yeung,e,11.2250,30.8782,209.0204,4.220701,0.1136651,0.20453420,300.4117,05/28.0/2024,2000,g 13.0,4.0
# From MPEC 2023-N01
173P/Mueller,e,16.4910,100.3550,29.1951,5.712786,0.0721825,0.26205933,64.4706,05/28.0/2024,2000,g  7.5,4.0
# From MPC 92985
174P/Echeclus,e,4.3428,173.3023,163.4427,10.75616,0.0279395,0.45581799,92.8078,05/28.0/2024,2000,g  9.4,2.0
# From MPC114608
175P/Hergenrother,e,4.9137,110.0621,75.1160,3.674998,0.1399002,0.37939073,244.2334,05/28.0/2024,2000,g 14.0,4.0
# From MPC 89015
176P/LINEAR,e,0.2313,345.6311,34.4484,3.194474,0.1726256,0.19220947,95.7844,05/28.0/2024,2000,g 15.1,2.0
# From MPEC 2020-L06
177P/Barnard,e,31.0428,271.9398,60.6377,24.51665,0.0081192,0.95466095,52.5804,05/28.0/2024,2000,g 15.0,4.0
# From MPEC 2021-F20
178P/Hug-Bell,e,11.0903,102.7959,297.9304,3.632791,0.1423454,0.48251753,200.7293,05/28.0/2024,2000,g 14.6,4.0
# From MPEC 2024-EF7
179P/Jedicke,e,19.8932,115.5142,297.1166,5.935145,0.0681643,0.30577262,49.5809,05/28.0/2024,2000,g  2.5,8.0
# From MPEC 2024-F34
180P/NEAT,e,16.8615,84.5597,94.6423,3.868358,0.1295430,0.35359112,41.5697,05/28.0/2024,2000,g 11.0,4.0
# From MPC 89012
181P/Shoemaker-Levy,e,17.4823,35.4228,336.2915,3.877845,0.1290679,0.70027445,112.3307,05/28.0/2024,2000,g 11.5,4.0
# From MPEC 2014-J10
182P/LONEOS,e,16.2319,72.4502,54.2048,2.949368,0.1945856,0.66361029,145.2737,05/28.0/2024,2000,g 18.0,4.0
# From MPEC 2023-A50
183P/Korlevic-Juric,e,18.7969,3.8271,164.4674,4.691239,0.0970002,0.10314622,241.3767,05/28.0/2024,2000,g 12.5,2.0
# From MPEC 2020-W26
184P/Lovas,e,4.5726,173.2754,186.5603,3.799351,0.1330883,0.55037887,174.3292,05/28.0/2024,2000,g 13.5,4.0
# From MPEC 2024-F91
185P/Petriew,e,14.0144,214.1153,181.9003,3.098682,0.1806918,0.69968081,57.8412,05/28.0/2024,2000,g 15.0,4.0
# From MPEC 2022-X67
186P/Garradd,e,28.6265,326.0956,268.9919,4.851831,0.0922243,0.12424258,182.7353,05/28.0/2024,2000,g  7.5,4.0
# From MPEC 2020-SI8
187P/LINEAR,e,13.6520,109.8468,131.1894,4.558940,0.1012531,0.15418719,223.6336,05/28.0/2024,2000,g  9.0,4.0
# From MPEC 2023-J29
188P/LINEAR-Mueller,e,10.5238,358.9357,26.7574,4.367662,0.1079768,0.41692136,286.0327,05/28.0/2024,2000,g 11.5,4.0
# From MPEC 2022-QD9
189P/NEAT,e,20.0953,281.6724,16.2531,2.942810,0.1952364,0.58929368,124.5883,05/28.0/2024,2000,g 19.0,4.0
# From MPEC 2020-K19
190P/Mueller,e,2.1747,335.5597,50.4535,4.227010,0.1134107,0.52221051,336.1709,05/28.0/2024,2000,g 13.0,4.0
# From MPEC 2022-X67
191P/McNaught,e,8.8390,98.1902,284.2417,3.639598,0.1419463,0.38563683,165.2898,05/28.0/2024,2000,g 13.0,4.0
# From MPC 75724
192P/Shoemaker-Levy,e,24.5849,51.6550,313.0465,6.461048,0.0600136,0.77333808,0.2177,05/28.0/2024,2000,g 15.0,4.0
# From MPEC 2024-JU4
193P/LINEAR-NEAT,e,10.6835,335.1878,8.1359,3.578307,0.1456088,0.39308455,146.6636,05/28.0/2024,2000,g 14.0,4.0
# From MPEC 2024-GJ3
194P/LINEAR,e,11.8058,349.5253,128.5675,4.120030,0.1178565,0.56321192,13.4082,05/28.0/2024,2000,g 16.0,4.0
# From MPEC 2024-GJ3
195P/Hill,e,36.4239,243.1129,250.1518,6.474962,0.0598203,0.31364946,334.2294,05/28.0/2024,2000,g  8.5,4.0
# From MPEC 2024-GJ3
196P/Tichy,e,19.3008,24.1159,12.0918,3.804604,0.1328128,0.42791150,76.5851,05/28.0/2024,2000,g 13.5,4.0
# From MPC 94676
197P/LINEAR,e,25.6352,66.2464,189.2157,2.880965,0.2015567,0.62890597,108.1633,05/28.0/2024,2000,g 16.5,2.0
# From NK 1596
198P/ODAS,e,1.3388,358.2038,69.2917,3.594247,0.1446413,0.44477258,287.7268,05/28.0/2024,2000,g  9.0,4.0
# From MPEC 2024-GJ3
199P/Shoemaker,e,24.9387,92.3486,191.7714,5.877612,0.0691676,0.50482289,20.3661,05/28.0/2024,2000,g 10.0,4.0
# From MPEC 2022-C56
200P/Larsen,e,12.0964,234.8041,134.3700,4.950319,0.0894858,0.33194048,157.8475,05/28.0/2024,2000,g  9.0,4.0
# From MPC 93588
201P/LONEOS,e,5.7396,41.5389,19.7689,3.354761,0.1604027,0.63759058,175.9032,05/28.0/2024,2000,g 14.0,4.0
# From MPEC 2023-XP6
202P/Scotti,e,2.1416,177.3123,274.4943,4.103162,0.1185840,0.25187450,1.2561,05/28.0/2024,2000,g 13.5,4.0
# From MPEC 2021-S45
203P/Korlevic,e,2.9744,290.2492,154.8458,4.668595,0.0977068,0.31627817,150.8387,05/28.0/2024,2000,g 14.5,2.0
# From MPEC 2024-JU4
204P/LINEAR-NEAT,e,6.5965,108.4823,356.6915,3.583515,0.1452915,0.48815869,81.0731,05/28.0/2024,2000,g 14.0,4.0
# From MPEC 2023_O39
205P/Giacobini,e,15.3043,179.6132,154.1832,3.542632,0.1478138,0.56751276,127.9632,05/28.0/2024,2000,g 13.0,4.0
# From MPC 75725
206P/Barnard-Boattini,e,33.6331,202.3517,189.5554,3.490987,0.1511060,0.55141990,178.3034,05/28.0/2024,2000,g 19.0,4.0
# From MPEC 2024-JU4
207P/NEAT,e,10.2012,198.1558,272.9939,3.883920,0.1287653,0.75842224,15.0889,05/28.0/2024,2000,g 16.0,4.0
# From MPEC 2022-K19
208P/McMillan,e,4.4123,36.4001,310.6176,4.038424,0.1214468,0.37384255,349.3214,05/28.0/2024,2000,g 12.5,4.0
# From MPEC 2024-JU4
209P/LINEAR,e,21.2825,62.7697,152.4945,2.958459,0.1936893,0.67401445,350.8002,05/28.0/2024,2000,g 17.0,2.0
# From MPC105242
210P/Christensen,e,10.2799,93.8239,345.8988,3.162022,0.1752899,0.83401680,264.6951,05/28.0/2024,2000,g 13.5,4.0
# From MPEC 2024-JU4
211P/Hill,e,18.9201,117.1103,4.3173,3.548766,0.1474308,0.34425946,88.6384,05/28.0/2024,2000,g 12.5,4.0
# From MPEC 2024-GJ3
212P/NEAT,e,22.1487,97.9754,14.0235,3.901018,0.1279196,0.58666006,4.2089,05/28.0/2024,2000,g 17.0,2.0
# From MPEC 2022-GA9
